QZS-1-(MICHIBIKI-1)-----
1 37158U 10045A   19112.98442351 -.00000164  00000-0  00000+0 0  9995
2 37158  41.2819 149.5881 0754094 270.2455 282.1322  1.00291485 31522
QZS-2--(MICHIBIKI-2)----
1 42738U 17028A   19113.34357365 -.00000238  00000-0  00000+0 0  9996
2 42738  43.6934 280.2774 0738751 271.0194 281.2855  1.00254038  6943
QZS-3-(MICHIBIKI-3)-----
1 42917U 17048A   19112.98433628 -.00000364  00000-0  00000+0 0  9993
2 42917   0.0464 211.4396 0002064 196.3608 284.3204  1.00274558  6179
QZS-4-(MICHIBIKI-4)-----
1 42965U 17062A   19112.85163521 -.00000351  00000-0  00000+0 0  9996
2 42965  40.7343  17.1844 0748122 270.5845   8.1775  1.00277853  5623
